NORAD_CAT_ID,OBJECT_NAME,OBJECT_TYPE,EPOCH,MEAN_MOTION,ECCENTRICITY,INCLINATION,RA_OF_ASC_NODE,ARG_OF_PERICENTER,MEAN_ANOMALY,BSTAR,MEAN_MOTION_DOT,MEAN_MOTION_DDOT,TLE_LINE0,TLE_LINE1,TLE_LINE2,SEMIMAJOR_AXIS,PERIOD,APOGEE,PERIGEE,DECAYED
52362.0,STARLINK-3848,PAYLOAD,2022-06-07 14:00:01,15.73183109,0.0002349,53.2142,244.7393,24.4263,350.269,0.00018194,0.00024972,0.0,0 STARLINK-3848,1 52362U 22045AH  22158.58334491  .00024972  00000-0  18194-3 0  9996,2 52362  53.2142 244.7393 0002349  24.4263 350.2690 15.73183109  1305,6727.943,91.534,351.389,348.228,0.0
52362.0,STARLINK-3848,PAYLOAD,2022-06-07 22:00:00,15.7326334,0.0002371,53.2141,243.0885,23.6646,79.9662,-0.00065653,-0.00092023,0.0,0 STARLINK-3848,1 52362U 22045AH  22158.91667824 -.00092023  00000-0 -65653-3 0  9998,2 52362  53.2141 243.0885 0002371  23.6646  79.9662 15.73263340  8692,6727.715,91.529,351.175,347.9840000000001,0.0
52362.0,STARLINK-3848,PAYLOAD,2022-06-08 14:00:01,15.73234666,0.0002547,53.2139,239.7907,25.3879,256.1219,-0.00035754,-0.00050583,0.0,0 STARLINK-3848,1 52362U 22045AH  22159.58334491 -.00050583  00000-0 -35754-3 0  9997,2 52362  53.2139 239.7907 0002547  25.3879 256.1219 15.73234666  8795,6727.795999999999,91.531,351.375,347.9480000000001,0.0
52362.0,STARLINK-3848,PAYLOAD,2022-06-08 22:00:01,15.73206423,0.0002292,53.2136,238.1395,19.3218,351.1975,-0.00081627,-0.00113693,0.0,0 STARLINK-3848,1 52362U 22045AH  22159.91668981 -.00113693  00000-0 -81627-3 0  9990,2 52362  53.2136 238.1395 0002292  19.3218 351.1975 15.73206423  1308,6727.877,91.533,351.284,348.2,0.0
52362.0,STARLINK-3848,PAYLOAD,2022-06-09 06:00:00,15.73132887,0.0002198,53.214,236.4895,20.0736,79.2606,0.00024465,0.00033756,0.0,0 STARLINK-3848,1 52362U 22045AH  22160.25001157  .00033756  00000-0  24465-3 0  9991,2 52362  53.2140 236.4895 0002198  20.0736  79.2606 15.73132887  8902,6728.087,91.537,351.43,348.473,0.0
52362.0,STARLINK-3848,PAYLOAD,2022-06-09 14:00:01,15.73134779,0.0002534,53.2142,234.8421,17.581,170.62400000000005,0.00042675,0.00059535,0.0,0 STARLINK-3848,1 52362U 22045AH  22160.58334491  .00059535  00000-0  42675-3 0  9993,2 52362  53.2142 234.8421 0002534  17.5810 170.6240 15.73134779  1308,6728.081,91.537,351.651,348.241,0.0
52362.0,STARLINK-3848,PAYLOAD,2022-06-09 22:00:00,15.73194629,0.0002436,53.2141,233.1911,18.009,259.0836,7.167e-05,9.447e-05,0.0,0 STARLINK-3848,1 52362U 22045AH  22160.91667824  .00009447  00000-0  71670-4 0  9994,2 52362  53.2141 233.1911 0002436  18.0090 259.0836 15.73194629  1303,6727.91,91.533,351.414,348.13699999999994,0.0
52362.0,STARLINK-3848,PAYLOAD,2022-06-10 08:00:01,15.73228454,0.0002461,53.2141,231.1291,19.2809,98.9569,-3.4124e-05,-5.415e-05,0.0,0 STARLINK-3848,1 52362U 22045AH  22161.33334491 -.00005415  00000-0 -34124-4 0  9998,2 52362  53.2141 231.1291 0002461  19.2809  98.9569 15.73228454  9070,6727.814,91.532,351.335,348.023,0.0
52362.0,STARLINK-3848,PAYLOAD,2022-06-10 14:00:01,15.73237388,0.0002648,53.2139,229.8934,16.3488,78.618,-0.00035555,-0.00050313,0.0,0 STARLINK-3848,1 52362U 22045AH  22161.58334491 -.00050313  00000-0 -35555-3 0  9990,2 52362  53.2139 229.8934 0002648  16.3488  78.6180 15.73237388  1301,6727.7890000000025,91.531,351.435,347.872,0.0
52362.0,STARLINK-3848,PAYLOAD,2022-06-10 22:00:00,15.73194682,0.0002452,53.2136,228.242,13.3452,170.5937,0.00010383,0.00013973,0.0,0 STARLINK-3848,1 52362U 22045AH  22161.91667824  .00013973  00000-0  10383-3 0  9997,2 52362  53.2136 228.2420 0002452  13.3452 170.5937 15.73194682  1303,6727.91,91.533,351.425,348.126,0.0
52362.0,STARLINK-3848,PAYLOAD,2022-06-11 06:00:00,15.73213905,0.0002679,53.2174,226.5904,22.5681,250.1306,-9.7104e-05,-0.00014238,0.0,0 STARLINK-3848,1 52362U 22045AH  22162.25001157 -.00014238  00000-0 -97104-4 0  9990,2 52362  53.2174 226.5904 0002679  22.5681 250.1306 15.73213905  9213,6727.856,91.532,351.523,347.918,0.0
52362.0,STARLINK-3848,PAYLOAD,2022-06-11 14:00:01,15.73185267,0.0002792,53.214,224.9446,19.1912,342.6938,0.00026914,0.000373,0.0,0 STARLINK-3848,1 52362U 22045AH  22162.58334491  .00037300  00000-0  26914-3 0  9999,2 52362  53.2140 224.9446 0002792  19.1912 342.6938 15.73185267  9266,6727.937,91.534,351.681,347.9240000000001,0.0
52362.0,STARLINK-3848,PAYLOAD,2022-06-11 22:00:00,15.73192229,0.0002593,53.2139,223.2932,16.7906,74.0404,-7.687199999999999e-05,-0.00011394,0.0,0 STARLINK-3848,1 52362U 22045AH  22162.91667824 -.00011394  00000-0 -76872-4 0  9991,2 52362  53.2139 223.2932 0002593  16.7906  74.0404 15.73192229  1308,6727.917,91.534,351.527,348.038,0.0
52362.0,STARLINK-3848,PAYLOAD,2022-06-12 06:00:02,15.73195399,0.00026,53.2138,221.6438,18.3864,161.4039,0.00011714,0.00015848,0.0,0 STARLINK-3848,1 52362U 22045AH  22163.25002315  .00015848  00000-0  11714-3 0  9996,2 52362  53.2138 221.6438 0002600  18.3864 161.4039 15.73195399  9371,6727.908,91.533,351.523,348.024,0.0
52362.0,STARLINK-3848,PAYLOAD,2022-06-12 14:00:01,15.73210314,0.0002862,53.2132,219.9962,15.2093,253.4537,-0.00020269,-0.0002898999999999,0.0,0 STARLINK-3848,1 52362U 22045AH  22163.58334491 -.00028990  00000-0 -20269-3 0  9994,2 52362  53.2132 219.9962 0002862  15.2093 253.4537 15.73210314  1302,6727.866,91.533,351.656,347.805,0.0
52362.0,STARLINK-3848,PAYLOAD,2022-06-12 22:00:00,15.73172343,0.0002589,53.2129,218.3446,13.8455,343.7614,0.0003273,0.00045513,0.0,0 STARLINK-3848,1 52362U 22045AH  22163.91667824  .00045513  00000-0  32730-3 0  9994,2 52362  53.2129 218.3446 0002589  13.8455 343.7614 15.73172343  1308,6727.974,91.535,351.581,348.097,0.0
52362.0,STARLINK-3848,PAYLOAD,2022-06-13 14:00:01,15.73210429,0.000288,53.2133,215.0474,11.0688,164.4386,0.00014936,0.00020403,0.0,0 STARLINK-3848,1 52362U 22045AH  22164.58334491  .00020403  00000-0  14936-3 0  9998,2 52362  53.2133 215.0474 0002880  11.0688 164.4386 15.73210429  9580,6727.865,91.533,351.668,347.793,0.0
52362.0,STARLINK-3848,PAYLOAD,2022-06-13 22:00:00,15.732193,0.0002746,53.2139,213.3957,13.2389,251.2452,-0.00010493,-0.00015337,0.0,0 STARLINK-3848,1 52362U 22045AH  22164.91667824 -.00015337  00000-0 -10493-3 0  9990,2 52362  53.2139 213.3957 0002746  13.2389 251.2452 15.73219300  1304,6727.84,91.532,351.55300000000005,347.858,0.0
52362.0,STARLINK-3848,PAYLOAD,2022-06-14 14:00:01,15.73172432,0.0002978,53.2139,210.0986,10.1103,72.2349,-3.7534e-05,-5.882e-05,0.0,0 STARLINK-3848,1 52362U 22045AH  22165.58334491 -.00005882  00000-0 -37534-4 0  9995,2 52362  53.2139 210.0986 0002978  10.1103  72.2349 15.73172432  9743,6727.974,91.535,351.842,347.835,0.0
52362.0,STARLINK-3848,PAYLOAD,2022-06-14 22:00:00,15.73125209,0.0002702,53.2137,208.4471,7.6261,163.6218,0.00048291,0.00067489,0.0,0 STARLINK-3848,1 52362U 22045AH  22165.91667824  .00067489  00000-0  48291-3 0  9991,2 52362  53.2137 208.4471 0002702   7.6261 163.6218 15.73125209  1306,6728.108,91.538,351.791,348.155,0.0
52362.0,STARLINK-3848,PAYLOAD,2022-06-15 14:00:01,15.73180122,0.0003042,53.2137,205.1502,9.509,339.5166,0.00061394,0.00086372,0.0,0 STARLINK-3848,1 52362U 22045AH  22166.58334491  .00086372  00000-0  61394-3 0  9997,2 52362  53.2137 205.1502 0003042   9.5090 339.5166 15.73180122  9897,6727.9519999999975,91.534,351.86300000000006,347.77,0.0
52362.0,STARLINK-3848,PAYLOAD,2022-06-15 22:00:00,15.73252089,0.0002833,53.214,203.4984,12.1079,65.8788,-0.00020339,-0.00029138,0.0,0 STARLINK-3848,1 52362U 22045AH  22166.91667824 -.00029138  00000-0 -20339-3 0  9996,2 52362  53.2140 203.4984 0002833  12.1079  65.8788 15.73252089  1309,6727.746999999999,91.53,351.51800000000014,347.706,0.0
52362.0,STARLINK-3848,PAYLOAD,2022-06-16 02:00:01,15.73242491,0.0002823,53.214,202.6732,14.8973,287.5829,-0.00020837,-0.00029822,0.0,0 STARLINK-3848,1 52362U 22045AH  22167.08334491 -.00029822  00000-0 -20837-3 0  9999,2 52362  53.2140 202.6732 0002823  14.8973 287.5829 15.73242491  1307,6727.774,91.531,351.538,347.74,0.0
52362.0,STARLINK-3848,PAYLOAD,2022-06-19 14:00:01,15.7328671,0.0002571,53.2142,185.3551,16.3898,319.773,-0.0003178,-0.00045158,0.0,0 STARLINK-3848,1 52362U 22045AH  22170.58334491 -.00045158  00000-0 -31780-3 0  9997,2 52362  53.2142 185.3551 0002571  16.3898 319.7730 15.73286710  1309,6727.648,91.528,351.24300000000005,347.783,0.0
52362.0,STARLINK-3848,PAYLOAD,2022-06-19 20:00:01,15.73250446,0.0002371,53.2147,184.1161,18.9089,294.0273,-0.00040972,-0.00057861,0.0,0 STARLINK-3848,1 52362U 22045AH  22170.83334491 -.00057861  00000-0 -40972-3 0  9992,2 52362  53.2147 184.1161 0002371  18.9089 294.0273 15.73250446 10568,6727.751,91.53,351.212,348.021,0.0
52362.0,STARLINK-3848,PAYLOAD,2022-06-19 22:00:00,15.73218405,0.0002344,53.2146,183.7033,19.3037,45.8856,-4.7769e-05,-7.326e-05,0.0,0 STARLINK-3848,1 52362U 22045AH  22170.91667824 -.00007326  00000-0 -47769-4 0  9993,2 52362  53.2146 183.7033 0002344  19.3037  45.8856 15.73218405  1308,6727.843000000003,91.532,351.285,348.131,0.0
52362.0,STARLINK-3848,PAYLOAD,2022-06-20 06:00:00,15.73221503,0.0002559,53.2145,182.0552,22.0119,132.1231,0.00010657,0.00014375,0.0,0 STARLINK-3848,1 52362U 22045AH  22171.25001157  .00014375  00000-0  10657-3 0  9997,2 52362  53.2145 182.0552 0002559  22.0119 132.1231 15.73221503 10631,6727.834,91.532,351.421,347.977,0.0
52362.0,STARLINK-3848,PAYLOAD,2022-06-20 12:00:00,15.73220103,0.0002658,53.2142,180.8189,19.9294,110.91,-0.00014295,-0.00020656,0.0,0 STARLINK-3848,1 52362U 22045AH  22171.50001157 -.00020656  00000-0 -14295-3 0  9998,2 52362  53.2142 180.8189 0002658  19.9294 110.9100 15.73220103 10677,6727.8380000000025,91.532,351.491,347.915,0.0
52362.0,STARLINK-3848,PAYLOAD,2022-06-20 14:00:01,15.73236234,0.000261,53.214,180.406,19.7849,223.2882,-0.0005059,-0.00071148,0.0,0 STARLINK-3848,1 52362U 22045AH  22171.58334491 -.00071148  00000-0 -50590-3 0  9996,2 52362  53.2140 180.4060 0002610  19.7849 223.2882 15.73236234  1308,6727.792,91.531,351.413,347.901,0.0
